{"type": "FeatureCollection", "features": [{"type": "Feature", "geometry": {"type": "Point", "coordinates": [76.67535572393673, 29.612149557084912]}, "properties": {"id": 0, "name": "Synthetic CHC 0", "synthetic": true}}, {"type": "Feature", "geometry": {"type": "Point", "coordinates": [77.04955558242555, 31.003088853152775]}, "properties": {"id": 1, "name": "Synthetic CHC 1", "synthetic": true}}, {"type": "Feature", "geometry": {"type": "Point", "coordinates": [76.94585763717204, 30.7583797923918]}, "properties": {"id": 2, "name": "Synthetic CHC 2", "synthetic": true}}, {"type": "Feature", "geometry": {"type": "Point", "coordinates": [76.22867583454371, 30.331092311694672]}, "properties": {"id": 3, "name": "Synthetic CHC 3", "synthetic": true}}, {"type": "Feature", "geometry": {"type": "Point", "coordinates": [76.49455312443487, 29.323941183070577]}, "properties": {"id": 4, "name": "Synthetic CHC 4", "synthetic": true}}, {"type": "Feature", "geometry": {"type": "Point", "coordinates": [74.2451303585743, 30.50109465474192]}, "properties": {"id": 5, "name": "Synthetic CHC 5", "synthetic": true}}, {"type": "Feature", "geometry": {"type": "Point", "coordinates": [76.26480448269916, 29.92381866953962]}, "properties": {"id": 6, "name": "Synthetic CHC 6", "synthetic": true}}, {"type": "Feature", "geometry": {"type": "Point", "coordinates": [77.49540709426746, 29.81035054018696]}, "properties": {"id": 7, "name": "Synthetic CHC 7", "synthetic": true}}, {"type": "Feature", "geometry": {"type": "Point", "coordinates": [75.09375228180414, 31.421592232910804]}, "properties": {"id": 8, "name": "Synthetic CHC 8", "synthetic": true}}, {"type": "Feature", "geometry": {"type": "Point", "coordinates": [75.90688482946112, 31.233019988428055]}, "properties": {"id": 9, "name": "Synthetic CHC 9", "synthetic": true}}, {"type": "Feature", "geometry": {"type": "Point", "coordinates": [74.94781386006763, 30.608221930274407]}, "properties": {"id": 10, "name": "Synthetic CHC 10", "synthetic": true}}, {"type": "Feature", "geometry": {"type": "Point", "coordinates": [74.71670567032444, 28.854413278210814]}, "properties": {"id": 11, "name": "Synthetic CHC 11", "synthetic": true}}, {"type": "Feature", "geometry": {"type": "Point", "coordinates": [76.21088604680214, 28.709723301890502]}, "properties": {"id": 12, "name": "Synthetic CHC 12", "synthetic": true}}, {"type": "Feature", "geometry": {"type": "Point", "coordinates": [74.51519215756025, 29.301030729651192]}, "properties": {"id": 13, "name": "Synthetic CHC 13", "synthetic": true}}, {"type": "Feature", "geometry": {"type": "Point", "coordinates": [74.74033143117207, 28.598913745340802]}, "properties": {"id": 14, "name": "Synthetic CHC 14", "synthetic": true}}, {"type": "Feature", "geometry": {"type": "Point", "coordinates": [75.73202284488362, 30.646349977464425]}, "properties": {"id": 15, "name": "Synthetic CHC 15", "synthetic": true}}, {"type": "Feature", "geometry": {"type": "Point", "coordinates": [75.26439482617938, 31.171698077374955]}, "properties": {"id": 16, "name": "Synthetic CHC 16", "synthetic": true}}, {"type": "Feature", "geometry": {"type": "Point", "coordinates": [75.5091016018676, 28.728168579326944]}, "properties": {"id": 17, "name": "Synthetic CHC 17", "synthetic": true}}, {"type": "Feature", "geometry": {"type": "Point", "coordinates": [74.31476151399185, 29.45697576392196]}, "properties": {"id": 18, "name": "Synthetic CHC 18", "synthetic": true}}, {"type": "Feature", "geometry": {"type": "Point", "coordinates": [76.87694531607178, 29.19679811203102]}, "properties": {"id": 19, "name": "Synthetic CHC 19", "synthetic": true}}, {"type": "Feature", "geometry": {"type": "Point", "coordinates": [76.95683776623636, 28.330699513155974]}, "properties": {"id": 20, "name": "Synthetic CHC 20", "synthetic": true}}, {"type": "Feature", "geometry": {"type": "Point", "coordinates": [74.30111237530592, 31.114822353495224]}, "properties": {"id": 21, "name": "Synthetic CHC 21", "synthetic": true}}, {"type": "Feature", "geometry": {"type": "Point", "coordinates": [74.85309427122417, 29.570602271264324]}, "properties": {"id": 22, "name": "Synthetic CHC 22", "synthetic": true}}, {"type": "Feature", "geometry": {"type": "Point", "coordinates": [75.6507069917, 28.074176760339068]}, "properties": {"id": 23, "name": "Synthetic CHC 23", "synthetic": true}}, {"type": "Feature", "geometry": {"type": "Point", "coordinates": [76.86397705840176, 29.39035019607973]}, "properties": {"id": 24, "name": "Synthetic CHC 24", "synthetic": true}}, {"type": "Feature", "geometry": {"type": "Point", "coordinates": [76.35260947351627, 30.754117759749562]}, "properties": {"id": 25, "name": "Synthetic CHC 25", "synthetic": true}}, {"type": "Feature", "geometry": {"type": "Point", "coordinates": [76.93484651353931, 30.114188426924425]}, "properties": {"id": 26, "name": "Synthetic CHC 26", "synthetic": true}}, {"type": "Feature", "geometry": {"type": "Point", "coordinates": [76.84322886624055, 28.07116526887783]}, "properties": {"id": 27, "name": "Synthetic CHC 27", "synthetic": true}}, {"type": "Feature", "geometry": {"type": "Point", "coordinates": [77.18704006928441, 31.062689032792925]}, "properties": {"id": 28, "name": "Synthetic CHC 28", "synthetic": true}}, {"type": "Feature", "geometry": {"type": "Point", "coordinates": [76.64630630441314, 29.49766321134973]}, "properties": {"id": 29, "name": "Synthetic CHC 29", "synthetic": true}}]}