{
  "type": "FeatureCollection",
  "run_id": "2026-10-09T00Z",
  "features": [
    {
      "type": "Feature",
      "geometry": {
        "type": "LineString",
        "coordinates": [
          [
            77.3159,
            28.6469
          ],
          [
            77.2518,
            28.6889
          ],
          [
            77.1886,
            28.7301
          ],
          [
            77.1276,
            28.7717
          ],
          [
            77.0685,
            28.8113
          ],
          [
            77.0041,
            28.8554
          ],
          [
            76.9398,
            28.8981
          ],
          [
            76.8753,
            28.9361
          ],
          [
            76.8104,
            28.9785
          ],
          [
            76.7525,
            29.0179
          ],
          [
            76.6867,
            29.0551
          ],
          [
            76.6198,
            29.0921
          ],
          [
            76.5559,
            29.1327
          ],
          [
            76.4931,
            29.168
          ],
          [
            76.4337,
            29.2112
          ],
          [
            76.3778,
            29.2548
          ],
          [
            76.3115,
            29.2928
          ],
          [
            76.2522,
            29.3351
          ],
          [
            76.1914,
            29.3777
          ],
          [
            76.1362,
            29.4153
          ],
          [
            76.0801,
            29.4534
          ],
          [
            76.0219,
            29.4929
          ],
          [
            75.9583,
            29.5304
          ],
          [
            75.8935,
            29.5736
          ],
          [
            75.8372,
            29.6164
          ],
          [
            75.7704,
            29.6564
          ],
          [
            75.7099,
            29.6947
          ],
          [
            75.6467,
            29.7304
          ],
          [
            75.5844,
            29.7719
          ],
          [
            75.5195,
            29.8104
          ],
          [
            75.4526,
            29.8545
          ],
          [
            75.3892,
            29.8976
          ],
          [
            75.3277,
            29.9397
          ],
          [
            75.266,
            29.9788
          ],
          [
            75.2035,
            30.0183
          ],
          [
            75.1418,
            30.0559
          ],
          [
            75.08,
            30.0976
          ],
          [
            75.0216,
            30.1367
          ],
          [
            74.9621,
            30.1803
          ],
          [
            74.8975,
            30.2243
          ],
          [
            74.834,
            30.2672
          ],
          [
            74.7789,
            30.3056
          ],
          [
            74.7218,
            30.3408
          ],
          [
            74.6633,
            30.3786
          ],
          [
            74.6044,
            30.4206
          ],
          [
            74.5404,
            30.457
          ],
          [
            74.4798,
            30.498
          ],
          [
            74.4203,
            30.5355
          ],
          [
            74.3621,
            30.5797
          ]
        ]
      },
      "properties": {
        "station_id": "1420",
        "run_id": "2026-10-09T00Z",
        "valid_hour": "2026-10-10T02:00Z",
        "member": 0,
        "timestamps": [
          "2026-10-10T02:00Z",
          "2026-10-10T01:00Z",
          "2026-10-10T00:00Z",
          "2026-10-09T23:00Z",
          "2026-10-09T22:00Z",
          "2026-10-09T21:00Z",
          "2026-10-09T20:00Z",
          "2026-10-09T19:00Z",
          "2026-10-09T18:00Z",
          "2026-10-09T17:00Z",
          "2026-10-09T16:00Z",
          "2026-10-09T15:00Z",
          "2026-10-09T14:00Z",
          "2026-10-09T13:00Z",
          "2026-10-09T12:00Z",
          "2026-10-09T11:00Z",
          "2026-10-09T10:00Z",
          "2026-10-09T09:00Z",
          "2026-10-09T08:00Z",
          "2026-10-09T07:00Z",
          "2026-10-09T06:00Z",
          "2026-10-09T05:00Z",
          "2026-10-09T04:00Z",
          "2026-10-09T03:00Z",
          "2026-10-09T02:00Z",
          "2026-10-09T01:00Z",
          "2026-10-09T00:00Z",
          "2026-10-08T23:00Z",
          "2026-10-08T22:00Z",
          "2026-10-08T21:00Z",
          "2026-10-08T20:00Z",
          "2026-10-08T19:00Z",
          "2026-10-08T18:00Z",
          "2026-10-08T17:00Z",
          "2026-10-08T16:00Z",
          "2026-10-08T15:00Z",
          "2026-10-08T14:00Z",
          "2026-10-08T13:00Z",
          "2026-10-08T12:00Z",
          "2026-10-08T11:00Z",
          "2026-10-08T10:00Z",
          "2026-10-08T09:00Z",
          "2026-10-08T08:00Z",
          "2026-10-08T07:00Z",
          "2026-10-08T06:00Z",
          "2026-10-08T05:00Z",
          "2026-10-08T04:00Z",
          "2026-10-08T03:00Z",
          "2026-10-08T02:00Z"
        ]
      }
    },
    {
      "type": "Feature",
      "geometry": {
        "type": "LineString",
        "coordinates": [
          [
            77.1855,
            28.5635
          ],
          [
            77.1209,
            28.6018
          ],
          [
            77.0541,
            28.6406
          ],
          [
            76.99,
            28.6757
          ],
          [
            76.9271,
            28.7142
          ],
          [
            76.8645,
            28.75
          ],
          [
            76.8064,
            28.7889
          ],
          [
            76.7494,
            28.8261
          ],
          [
            76.691,
            28.8687
          ],
          [
            76.6245,
            28.9094
          ],
          [
            76.5581,
            28.9478
          ],
          [
            76.4984,
            28.9863
          ],
          [
            76.4407,
            29.0279
          ],
          [
            76.3805,
            29.0711
          ],
          [
            76.3236,
            29.1072
          ],
          [
            76.2639,
            29.1435
          ],
          [
            76.2064,
            29.1872
          ],
          [
            76.1409,
            29.2266
          ],
          [
            76.0846,
            29.2649
          ],
          [
            76.0185,
            29.2999
          ],
          [
            75.9517,
            29.338
          ],
          [
            75.893,
            29.3817
          ],
          [
            75.836,
            29.4247
          ],
          [
            75.7758,
            29.4671
          ],
          [
            75.717,
            29.5058
          ],
          [
            75.6604,
            29.5483
          ],
          [
            75.6024,
            29.5843
          ],
          [
            75.5457,
            29.6199
          ],
          [
            75.4817,
            29.6633
          ],
          [
            75.4223,
            29.7025
          ],
          [
            75.3567,
            29.7387
          ],
          [
            75.3001,
            29.7775
          ],
          [
            75.2437,
            29.8192
          ],
          [
            75.185,
            29.863
          ],
          [
            75.1208,
            29.9004
          ],
          [
            75.0653,
            29.939
          ],
          [
            74.9996,
            29.9815
          ],
          [
            74.9376,
            30.0169
          ],
          [
            74.876,
            30.0545
          ],
          [
            74.8102,
            30.0934
          ],
          [
            74.7481,
            30.133
          ],
          [
            74.6876,
            30.1681
          ],
          [
            74.6213,
            30.2118
          ],
          [
            74.5642,
            30.2476
          ],
          [
            74.5077,
            30.284
          ],
          [
            74.4494,
            30.3204
          ],
          [
            74.386,
            30.3651
          ],
          [
            74.3289,
            30.4005
          ],
          [
            74.2662,
            30.4424
          ]
        ]
      },
      "properties": {
        "station_id": "2554",
        "run_id": "2026-10-09T00Z",
        "valid_hour": "2026-10-10T02:00Z",
        "member": 0,
        "timestamps": [
          "2026-10-10T02:00Z",
          "2026-10-10T01:00Z",
          "2026-10-10T00:00Z",
          "2026-10-09T23:00Z",
          "2026-10-09T22:00Z",
          "2026-10-09T21:00Z",
          "2026-10-09T20:00Z",
          "2026-10-09T19:00Z",
          "2026-10-09T18:00Z",
          "2026-10-09T17:00Z",
          "2026-10-09T16:00Z",
          "2026-10-09T15:00Z",
          "2026-10-09T14:00Z",
          "2026-10-09T13:00Z",
          "2026-10-09T12:00Z",
          "2026-10-09T11:00Z",
          "2026-10-09T10:00Z",
          "2026-10-09T09:00Z",
          "2026-10-09T08:00Z",
          "2026-10-09T07:00Z",
          "2026-10-09T06:00Z",
          "2026-10-09T05:00Z",
          "2026-10-09T04:00Z",
          "2026-10-09T03:00Z",
          "2026-10-09T02:00Z",
          "2026-10-09T01:00Z",
          "2026-10-09T00:00Z",
          "2026-10-08T23:00Z",
          "2026-10-08T22:00Z",
          "2026-10-08T21:00Z",
          "2026-10-08T20:00Z",
          "2026-10-08T19:00Z",
          "2026-10-08T18:00Z",
          "2026-10-08T17:00Z",
          "2026-10-08T16:00Z",
          "2026-10-08T15:00Z",
          "2026-10-08T14:00Z",
          "2026-10-08T13:00Z",
          "2026-10-08T12:00Z",
          "2026-10-08T11:00Z",
          "2026-10-08T10:00Z",
          "2026-10-08T09:00Z",
          "2026-10-08T08:00Z",
          "2026-10-08T07:00Z",
          "2026-10-08T06:00Z",
          "2026-10-08T05:00Z",
          "2026-10-08T04:00Z",
          "2026-10-08T03:00Z",
          "2026-10-08T02:00Z"
        ]
      }
    },
    {
      "type": "Feature",
      "geometry": {
        "type": "LineString",
        "coordinates": [
          [
            77.1312,
            28.668
          ],
          [
            77.0663,
            28.7031
          ],
          [
            77.0063,
            28.748
          ],
          [
            76.9427,
            28.7907
          ],
          [
            76.8798,
            28.8352
          ],
          [
            76.8213,
            28.8714
          ],
          [
            76.7558,
            28.9092
          ],
          [
            76.6988,
            28.9487
          ],
          [
            76.6362,
            28.9936
          ],
          [
            76.5774,
            29.0333
          ],
          [
            76.5126,
            29.0729
          ],
          [
            76.4497,
            29.1144
          ],
          [
            76.3867,
            29.1562
          ],
          [
            76.3286,
            29.1922
          ],
          [
            76.2637,
            29.2285
          ],
          [
            76.1997,
            29.2731
          ],
          [
            76.1406,
            29.3177
          ],
          [
            76.0816,
            29.3571
          ],
          [
            76.0154,
            29.3923
          ],
          [
            75.9596,
            29.4351
          ],
          [
            75.9025,
            29.4771
          ],
          [
            75.836,
            29.5181
          ],
          [
            75.7751,
            29.5624
          ],
          [
            75.7148,
            29.5987
          ],
          [
            75.659,
            29.6365
          ],
          [
            75.6017,
            29.679
          ],
          [
            75.5449,
            29.7164
          ],
          [
            75.48,
            29.7593
          ],
          [
            75.4172,
            29.7954
          ],
          [
            75.3518,
            29.8309
          ],
          [
            75.2915,
            29.8695
          ],
          [
            75.227,
            29.9141
          ],
          [
            75.1633,
            29.9505
          ],
          [
            75.1025,
            29.9902
          ],
          [
            75.0453,
            30.0335
          ],
          [
            74.987,
            30.0696
          ],
          [
            74.928,
            30.1142
          ],
          [
            74.8714,
            30.1493
          ],
          [
            74.8077,
            30.1904
          ],
          [
            74.7514,
            30.2288
          ],
          [
            74.6855,
            30.2638
          ],
          [
            74.6241,
            30.3072
          ],
          [
            74.564,
            30.3423
          ],
          [
            74.5085,
            30.3808
          ],
          [
            74.4531,
            30.4245
          ],
          [
            74.3934,
            30.4645
          ],
          [
            74.3365,
            30.5032
          ],
          [
            74.2728,
            30.5421
          ],
          [
            74.21,
            30.5854
          ]
        ]
      },
      "properties": {
        "station_id": "8118",
        "run_id": "2026-10-09T00Z",
        "valid_hour": "2026-10-10T02:00Z",
        "member": 0,
        "timestamps": [
          "2026-10-10T02:00Z",
          "2026-10-10T01:00Z",
          "2026-10-10T00:00Z",
          "2026-10-09T23:00Z",
          "2026-10-09T22:00Z",
          "2026-10-09T21:00Z",
          "2026-10-09T20:00Z",
          "2026-10-09T19:00Z",
          "2026-10-09T18:00Z",
          "2026-10-09T17:00Z",
          "2026-10-09T16:00Z",
          "2026-10-09T15:00Z",
          "2026-10-09T14:00Z",
          "2026-10-09T13:00Z",
          "2026-10-09T12:00Z",
          "2026-10-09T11:00Z",
          "2026-10-09T10:00Z",
          "2026-10-09T09:00Z",
          "2026-10-09T08:00Z",
          "2026-10-09T07:00Z",
          "2026-10-09T06:00Z",
          "2026-10-09T05:00Z",
          "2026-10-09T04:00Z",
          "2026-10-09T03:00Z",
          "2026-10-09T02:00Z",
          "2026-10-09T01:00Z",
          "2026-10-09T00:00Z",
          "2026-10-08T23:00Z",
          "2026-10-08T22:00Z",
          "2026-10-08T21:00Z",
          "2026-10-08T20:00Z",
          "2026-10-08T19:00Z",
          "2026-10-08T18:00Z",
          "2026-10-08T17:00Z",
          "2026-10-08T16:00Z",
          "2026-10-08T15:00Z",
          "2026-10-08T14:00Z",
          "2026-10-08T13:00Z",
          "2026-10-08T12:00Z",
          "2026-10-08T11:00Z",
          "2026-10-08T10:00Z",
          "2026-10-08T09:00Z",
          "2026-10-08T08:00Z",
          "2026-10-08T07:00Z",
          "2026-10-08T06:00Z",
          "2026-10-08T05:00Z",
          "2026-10-08T04:00Z",
          "2026-10-08T03:00Z",
          "2026-10-08T02:00Z"
        ]
      }
    }
  ]
}
